TEVEL2-8                
1 63239U 25052AF  26068.66815442  .00019130  00000+0  69304-3 0  9993
2 63239  97.4055 324.2923 0008031 124.9191 235.2804 15.28392908 54807
STARLINK-33792          
1 63506U 25071P   26068.56498570  .00022125  00000+0  75717-3 0  9992
2 63506  53.1578 140.3008 0000972 104.7553 255.3555 15.30188086 52704
