[{"OBJECT_NAME":"TEVEL2-8","OBJECT_ID":"2025-052AF","EPOCH":"2026-03-09T16:02:08.542752","MEAN_MOTION":15.28392908,"ECCENTRICITY":0.0008031,"INCLINATION":97.4055,"RA_OF_ASC_NODE":324.2923,"ARG_OF_PERICENTER":124.9191,"MEAN_ANOMALY":235.2804,"EPHEMERIS_TYPE":0,"CLASSIFICATION_TYPE":"U","NORAD_CAT_ID":63239,"ELEMENT_SET_NO":999,"REV_AT_EPOCH":5480,"BSTAR":0.00069303947,"MEAN_MOTION_DOT":0.0001913,"MEAN_MOTION_DDOT":0},{"OBJECT_NAME":"STARLINK-33792","OBJECT_ID":"2025-071P","EPOCH":"2026-03-09T13:33:34.764480","MEAN_MOTION":15.30188086,"ECCENTRICITY":9.72e-5,"INCLINATION":53.1578,"RA_OF_ASC_NODE":140.3008,"ARG_OF_PERICENTER":104.7553,"MEAN_ANOMALY":255.3555,"EPHEMERIS_TYPE":0,"CLASSIFICATION_TYPE":"U","NORAD_CAT_ID":63506,"ELEMENT_SET_NO":999,"REV_AT_EPOCH":5270,"BSTAR":0.00075717,"MEAN_MOTION_DOT":0.00022125,"MEAN_MOTION_DDOT":0}]
